1 25414U 98046B   19273.04727746  .00000022  00000-0  58917-4 0  9990
2 25414  44.9955 293.8881 0006197 278.8779  81.1365 14.32907427104754
1 25414U 98046B   19273.53532322 +.00000021 +00000-0 +58645-4 0  9995
2 25414 044.9954 291.5930 0006186 280.9242 079.0908 14.32907578104655
1 25414U 98046B   19274.16281057  .00000024  00000-0  59600-4 0  9996
2 25414  44.9953 288.6420 0006188 283.6671  76.3486 14.32907763104919
1 25414U 98046B   19274.51141446 +.00000050 +00000-0 +69114-4 0  9992
2 25414 044.9953 287.0027 0006173 285.2152 074.8011 14.32908067104792
1 25414U 98046B   19275.41778461  .00000081  00000-0  80313-4 0  9993
2 25414  44.9951 282.7402 0006164 289.2137  70.8042 14.32908589105099
1 25414U 98046B   19275.48750530 +.00000092 +00000-0 +84358-4 0  9992
2 25414 044.9951 282.4124 0006153 289.4016 070.6165 14.32908711104936
1 25414U 98046B   19276.46359595  .00000117  00000-0  93346-4 0  9992
2 25414  44.9950 277.8220 0006133 293.7829  66.2373 14.32909309105249
1 25414U 98046B   19277.43968635 +.00000127 +00000-0 +96910-4 0  9992
2 25414 044.9949 273.2315 0006109 298.2368 061.7861 14.32909887105213
1 25414U 98046B   19277.99745215  .00000129  00000-0  97610-4 0  9990
2 25414  44.9949 270.6084 0006099 300.7712  59.2533 14.32910216105460
1 25414U 98046B   19278.41577648 +.00000126 +00000-0 +96832-4 0  9993
2 25414 044.9949 268.6411 0006077 302.6442 057.3817 14.32910451105351
1 25414U 98046B   19279.11298368  .00000122  00000-0  95120-4 0  9995
2 25414  44.9950 265.3623 0006065 306.1484  53.8801 14.32910801105627
1 25414U 98046B   19279.39186650 +.00000123 +00000-0 +95616-4 0  9996
2 25414 044.9950 264.0508 0006050 307.4200 052.6095 14.32910954105495
1 25414U 98046B   19280.15879408  .00000118  00000-0  93679-4 0  9993
2 25414  44.9950 260.4440 0006016 310.8179  49.2145 14.32911336105779
1 25414U 98046B   19280.36795616 +.00000118 +00000-0 +93606-4 0  9994
2 25414 044.9950 259.4604 0006004 311.7979 048.2354 14.32911429105633
1 25414U 98046B   19281.41376634  .00000110  00000-0  91015-4 0  9990
2 25414  44.9951 254.5422 0005956 316.6825  43.3553 14.32911851105958
1 25414U 98046B   19281.90181094 +.00000112 +00000-0 +91636-4 0  9999
2 25414 044.9951 252.2470 0005936 318.9470 041.0929 14.32912067105856
1 25414U 98046B   19282.94762060 +.00000103 +00000-0 +88394-4 0  9999
2 25414 044.9951 247.3288 0005871 323.8013 036.2435 14.32912486106005
1 25414U 98046B   19283.08706179  .00000103  00000-0  88395-4 0  9995
2 25414  44.9951 246.6731 0005859 324.3408  35.7046 14.32912577106193
1 25414U 98046B   19283.36594430 +.00000108 +00000-0 +90129-4 0  9994
2 25414 044.9951 245.3617 0005843 325.7496 034.2973 14.32912732106069
1 25414U 98046B   19284.34203269  .00000121  00000-0  94733-4 0  9990
2 25414  44.9951 240.7715 0005780 330.3929  29.6589 14.32913333106373
1 25414U 98046B   19284.89979738 +.00000119 +00000-0 +94004-4 0  9999
2 25414 044.9951 238.1484 0005747 333.0208 027.0339 14.32913625106289
